[{"OBJECT_NAME":"STARLINK-35340","OBJECT_ID":"2025-232T","EPOCH":"2026-03-09T08:07:22.279584","MEAN_MOTION":15.30199116,"ECCENTRICITY":0.00011731,"INCLINATION":53.1583,"RA_OF_ASC_NODE":105.4085,"ARG_OF_PERICENTER":127.6285,"MEAN_ANOMALY":232.4822,"EPHEMERIS_TYPE":0,"CLASSIFICATION_TYPE":"U","NORAD_CAT_ID":66022,"ELEMENT_SET_NO":999,"REV_AT_EPOCH":2338,"BSTAR":0.00073370048,"MEAN_MOTION_DOT":0.00021433,"MEAN_MOTION_DDOT":0},{"OBJECT_NAME":"FREGAT DEB","OBJECT_ID":"2011-037NM","EPOCH":"2026-03-09T21:01:07.795488","MEAN_MOTION":13.39665912,"ECCENTRICITY":0.09103246,"INCLINATION":51.3884,"RA_OF_ASC_NODE":232.6021,"ARG_OF_PERICENTER":190.9383,"MEAN_ANOMALY":167.0453,"EPHEMERIS_TYPE":0,"CLASSIFICATION_TYPE":"U","NORAD_CAT_ID":47330,"ELEMENT_SET_NO":999,"REV_AT_EPOCH":22515,"BSTAR":0.024434627,"MEAN_MOTION_DOT":0.0019134,"MEAN_MOTION_DDOT":0}]
